BEIDOU-2 G5 (C05)       
1 38091U 12008A   26117.07606152  .00000049  00000+0  00000+0 0  9997
2 38091   3.4486  69.9855 0012264 266.1896 325.0169  1.00273210 51854
BEIDOU-2 M3 (C11)       
1 38250U 12018A   26116.64076442 -.00000057  00000+0  00000+0 0  9990
2 38250  55.8029 306.6119 0019716 278.0782  81.7021  1.86229681 94985
BEIDOU-2 M4 (C12)       
1 38251U 12018B   26116.57298426 -.00000057  00000+0  00000+0 0  9991
2 38251  55.7028 305.8322 0011017 283.8904  75.9901  1.86229346 94987
SES-5 (EGNOS/PRN 136)   
1 38652U 12036A   26117.22267125  .00000024  00000+0  00000+0 0  9994
2 38652   0.0599 300.3439 0001946  94.9629 265.0472  1.00271777 43948
BEIDOU-2 M6 (C14)       
1 38775U 12050B   26115.20896256 -.00000027  00000+0  00000+0 0  9999
2 38775  56.5004  64.6451 0014489 348.5468  11.3943  1.86230847 92328
GSAT-10 (GAGAN/PRN 128) 
1 38779U 12051B   26117.35322382 -.00000174  00000+0  00000+0 0  9999
2 38779   0.0217 263.2245 0007053 178.7543 343.4864  1.00269995 49589
GPS BIIF-3  (PRN 24)    
1 38833U 12053A   26113.97246792  .00000040  00000+0  00000+0 0  9997
2 38833  53.5743 145.8203 0177937  65.1328 296.7656  2.00566553 98354
GSAT0103 (GALILEO-FM3)  
1 38857U 12055A   26116.85598551  .00000044  00000+0  00000+0 0  9992
2 38857  55.7754 102.9524 0005911 295.7911  64.1419  1.70473386 84139
BEIDOU-2 G6 (C02)       
1 38953U 12059A   26117.00967458 -.00000183  00000+0  00000+0 0  9992
2 38953   4.2943  74.0523 0010594 314.3518 274.0350  1.00274553 49390
LUCH 5B (SDCM/PRN 125)  
1 38977U 12061A   26117.06124145 -.00000143  00000+0  00000+0 0  9991
2 38977  10.3768  50.3818 0001718 214.0239 316.4236  1.00271707 49096
COSMOS 2485 (747)       
1 39155U 13019A   26117.22997064 -.00000002  00000+0  00000+0 0  9994
2 39155  65.3931  75.3133 0024461 237.6496 122.0892  2.13102975101194
GPS BIIF-4  (PRN 27)    
1 39166U 13023A   26116.33094632 -.00000048  00000+0  00000+0 0  9991
2 39166  54.5462 271.0846 0141890  50.6724 310.5447  2.00563766 94842
IRNSS-1A                
1 39199U 13034A   26116.93262759  .00000076  00000+0  00000+0 0  9992
2 39199  35.6121  64.6024 0017019 187.3154 353.7046  1.00272532 46853
GPS BIIF-5  (PRN 30)    
1 39533U 14008A   26116.83025517  .00000062  00000+0  00000+0 0  9999
2 39533  53.6447 151.4146 0083805 230.1392 129.1882  2.00556494 88653
ASTRA 5B (EGNOS/PRN 123)
1 39617U 14011B   26117.36641940  .00000127  00000+0  00000+0 0  9991
2 39617   0.0666 308.4164 0002675  66.4979 355.8425  1.00270055 44159
COSMOS 2492 (754)       
1 39620U 14012A   26111.55782382 -.00000024  00000+0  00000+0 0  9994
2 39620  65.3303 315.8614 0011743 330.3825  29.5784  2.13103169 94037
IRNSS-1B                
1 39635U 14017A   26116.93254094  .00000074  00000+0  00000+0 0  9990
2 39635  29.0143 241.2832 0023443 182.2406 182.0336  1.00272944 44288
